start=new Date('2022-03-17T00:00:00.000Z').valueOf();
sats=[{"CENTER_NAME":"EARTH","APOAPSIS":"548.390","BSTAR":"-0.00054469000000","FILE":"3361689","GP_ID":"198889239","EPHEMERIS_TYPE":"0","ELEMENT_SET_NO":"999","LAUNCH_DATE":"2021-04-29","PERIOD":"95.595","MEAN_ANOMALY":"309.0370","DECAY_DATE":null,"RA_OF_ASC_NODE":"150.0787","SITE":"AFETR","NORAD_CAT_ID":"48330","INCLINATION":"53.0527","RCS_SIZE":"LARGE","REV_AT_EPOCH":"4884","MEAN_ELEMENT_THEORY":"SGP4","MEAN_MOTION_DDOT":"0.0000000000000","EPOCH":"2022-03-16T10:09:57.852000","PERIAPSIS":"546.294","MEAN_MOTION":"15.06358097","REF_FRAME":"TEME","TLE_LINE1":"1 48330U 21036BG  22075.42358625 -.00008376  00000-0 -54469-3 0  9998","CLASSIFICATION_TYPE":"U","OBJECT_TYPE":"PAYLOAD","OBJECT_NAME":"STARLINK-2501","TLE_LINE2":"2 48330  53.0527 150.0787 0001513  51.0754 309.0370 15.06358097 48842","COUNTRY_CODE":"US","OBJECT_ID":"2021-036BG","SEMIMAJOR_AXIS":"6925.477","MEAN_MOTION_DOT":"-0.00008376","ECCENTRICITY":"0.00015130","ARG_OF_PERICENTER":"51.0754","TIME_SYSTEM":"UTC"},{"LAUNCH_DATE":"2021-04-29","PERIOD":"95.595","MEAN_ANOMALY":"305.0720","DECAY_DATE":null,"RA_OF_ASC_NODE":"149.5014","SITE":"AFETR","INCLINATION":"53.0551","NORAD_CAT_ID":"48331","RCS_SIZE":"LARGE","REV_AT_EPOCH":"4886","CENTER_NAME":"EARTH","APOAPSIS":"548.408","BSTAR":"-0.00057349000000","FILE":"3361689","GP_ID":"198888488","ELEMENT_SET_NO":"999","EPHEMERIS_TYPE":"0","OBJECT_ID":"2021-036BH","SEMIMAJOR_AXIS":"6925.481","MEAN_MOTION_DOT":"-0.00008803","ECCENTRICITY":"0.00015330","ARG_OF_PERICENTER":"55.0412","TIME_SYSTEM":"UTC","MEAN_ELEMENT_THEORY":"SGP4","MEAN_MOTION_DDOT":"0.0000000000000","EPOCH":"2022-03-16T13:15:45.638784","PERIAPSIS":"546.285","MEAN_MOTION":"15.06356643","REF_FRAME":"TEME","TLE_LINE1":"1 48331U 21036BH  22075.55261156 -.00008803  00000-0 -57349-3 0  9990","CLASSIFICATION_TYPE":"U","OBJECT_TYPE":"PAYLOAD","OBJECT_NAME":"STARLINK-2514","TLE_LINE2":"2 48331  53.0551 149.5014 0001533  55.0412 305.0720 15.06356643 48865","COUNTRY_CODE":"US"},{"OBJECT_ID":"2021-036BJ","SEMIMAJOR_AXIS":"6925.508","TIME_SYSTEM":"UTC","ARG_OF_PERICENTER":"51.1420","ECCENTRICITY":"0.00015230","MEAN_MOTION_DOT":"-0.00003980","PERIAPSIS":"546.318","EPOCH":"2022-03-16T11:38:50.764992","MEAN_ELEMENT_THEORY":"SGP4","MEAN_MOTION_DDOT":"0.0000000000000","TLE_LINE1":"1 48332U 21036BJ  22075.48530978 -.00003980  00000-0 -24878-3 0  9996","CLASSIFICATION_TYPE":"U","REF_FRAME":"TEME","MEAN_MOTION":"15.06348062","COUNTRY_CODE":"US","TLE_LINE2":"2 48332  53.0527 149.7970 0001523  51.1420 308.9704 15.06348062 49442","OBJECT_NAME":"STARLINK-2511","OBJECT_TYPE":"PAYLOAD","DECAY_DATE":null,"MEAN_ANOMALY":"308.9704","PERIOD":"95.595","LAUNCH_DATE":"2021-04-29","INCLINATION":"53.0527","NORAD_CAT_ID":"48332","SITE":"AFETR","RA_OF_ASC_NODE":"149.7970","RCS_SIZE":"LARGE","REV_AT_EPOCH":"4944","CENTER_NAME":"EARTH","GP_ID":"198861659","BSTAR":"-0.00024878000000","FILE":"3361438","APOAPSIS":"548.427","ELEMENT_SET_NO":"999","EPHEMERIS_TYPE":"0"},{"REV_AT_EPOCH":"4888","RCS_SIZE":"LARGE","RA_OF_ASC_NODE":"148.9264","SITE":"AFETR","INCLINATION":"53.0526","NORAD_CAT_ID":"48333","PERIOD":"95.595","LAUNCH_DATE":"2021-04-29","MEAN_ANOMALY":"302.6568","DECAY_DATE":null,"EPHEMERIS_TYPE":"0","ELEMENT_SET_NO":"999","APOAPSIS":"548.094","BSTAR":"0.00078309000000","FILE":"3362094","GP_ID":"198921394","CENTER_NAME":"EARTH","MEAN_MOTION_DOT":"0.00011386","ARG_OF_PERICENTER":"57.4523","ECCENTRICITY":"0.00010510","TIME_SYSTEM":"UTC","SEMIMAJOR_AXIS":"6925.501","OBJECT_ID":"2021-036BK","OBJECT_NAME":"STARLINK-2518","OBJECT_TYPE":"PAYLOAD","TLE_LINE2":"2 48333  53.0526 148.9264 0001051  57.4523 302.6568 15.06350149 48883","COUNTRY_CODE":"US","MEAN_MOTION":"15.06350149","REF_FRAME":"TEME","CLASSIFICATION_TYPE":"U","TLE_LINE1":"1 48333U 21036BK  22075.67793515  .00011386  00000-0  78309-3 0  9991","MEAN_MOTION_DDOT":"0.0000000000000","MEAN_ELEMENT_THEORY":"SGP4","EPOCH":"2022-03-16T16:16:13.596960","PERIAPSIS":"546.638"},{"DECAY_DATE":null,"MEAN_ANOMALY":"300.5484","PERIOD":"95.594","LAUNCH_DATE":"2021-04-29","INCLINATION":"53.0536","NORAD_CAT_ID":"48334","SITE":"AFETR","RA_OF_ASC_NODE":"149.8383","RCS_SIZE":"LARGE","REV_AT_EPOCH":"4944","CENTER_NAME":"EARTH","GP_ID":"198862582","BSTAR":"-0.00007598000000","FILE":"3361463","APOAPSIS":"548.495","ELEMENT_SET_NO":"999","EPHEMERIS_TYPE":"0","OBJECT_ID":"2021-036BL","SEMIMAJOR_AXIS":"6925.450","ECCENTRICITY":"0.00017030","ARG_OF_PERICENTER":"59.5673","TIME_SYSTEM":"UTC","MEAN_MOTION_DOT":"-0.00001412","PERIAPSIS":"546.136","EPOCH":"2022-03-16T11:24:19.142784","MEAN_MOTION_DDOT":"0.0000000000000","MEAN_ELEMENT_THEORY":"SGP4","TLE_LINE1":"1 48334U 21036BL  22075.47522156 -.00001412  00000-0 -75980-4 0  9995","CLASSIFICATION_TYPE":"U","REF_FRAME":"TEME","MEAN_MOTION":"15.06366836","COUNTRY_CODE":"US","TLE_LINE2":"2 48334  53.0536 149.8383 0001703  59.5673 300.5484 15.06366836 49447","OBJECT_TYPE":"PAYLOAD","OBJECT_NAME":"STARLINK-2470"},{"OBJECT_TYPE":"PAYLOAD","OBJECT_NAME":"STARLINK-2441","COUNTRY_CODE":"US","TLE_LINE2":"2 48335  53.0551 149.8671 0001523  90.5542 269.5621 15.06362624 48857","MEAN_ELEMENT_THEORY":"SGP4","MEAN_MOTION_DDOT":"0.0000000000000","PERIAPSIS":"546.273","EPOCH":"2022-03-16T11:18:59.663232","MEAN_MOTION":"15.06362624","CLASSIFICATION_TYPE":"U","TLE_LINE1":"1 48335U 21036BM  22075.47152388 -.00002102  00000-0 -12239-3 0  9996","REF_FRAME":"TEME","SEMIMAJOR_AXIS":"6925.463","ECCENTRICITY":"0.00015230","ARG_OF_PERICENTER":"90.5542","TIME_SYSTEM":"UTC","MEAN_MOTION_DOT":"-0.00002102","OBJECT_ID":"2021-036BM","APOAPSIS":"548.383","GP_ID":"198887989","BSTAR":"-0.00012239000000","FILE":"3361689","EPHEMERIS_TYPE":"0","ELEMENT_SET_NO":"999","CENTER_NAME":"EARTH","RCS_SIZE":"LARGE","REV_AT_EPOCH":"4885","MEAN_ANOMALY":"269.5621","LAUNCH_DATE":"2021-04-29","PERIOD":"95.595","DECAY_DATE":null,"SITE":"AFETR","RA_OF_ASC_NODE":"149.8671","NORAD_CAT_ID":"48335","INCLINATION":"53.0551"},{"CENTER_NAME":"EARTH","ELEMENT_SET_NO":"999","EPHEMERIS_TYPE":"0","APOAPSIS":"548.642","GP_ID":"198862407","FILE":"3361452","BSTAR":"-0.00009295400000","SITE":"AFETR","RA_OF_ASC_NODE":"50.1384","NORAD_CAT_ID":"48353","INCLINATION":"53.0561","MEAN_ANOMALY":"315.6099","PERIOD":"95.594","LAUNCH_DATE":"2021-05-04","DECAY_DATE":null,"REV_AT_EPOCH":"4842","RCS_SIZE":"LARGE","MEAN_MOTION":"15.06376649","TLE_LINE1":"1 48353U 21038A   22075.41069582 -.00001665  00000-0 -92954-4 0  9991","CLASSIFICATION_TYPE":"U","REF_FRAME":"TEME","MEAN_MOTION_DDOT":"0.0000000000000","MEAN_ELEMENT_THEORY":"SGP4","PERIAPSIS":"545.928","EPOCH":"2022-03-16T09:51:24.118848","OBJECT_TYPE":"PAYLOAD","OBJECT_NAME":"STARLINK-2613","COUNTRY_CODE":"US","TLE_LINE2":"2 48353  53.0561  50.1384 0001959  44.5047 315.6099 15.06376649 48422","OBJECT_ID":"2021-038A","ARG_OF_PERICENTER":"44.5047","ECCENTRICITY":"0.00019590","TIME_SYSTEM":"UTC","MEAN_MOTION_DOT":"-0.00001665","SEMIMAJOR_AXIS":"6925.420"},{"REV_AT_EPOCH":"4783","RCS_SIZE":"LARGE","NORAD_CAT_ID":"48354","INCLINATION":"53.0569","SITE":"AFETR","RA_OF_ASC_NODE":"50.1511","DECAY_DATE":null,"MEAN_ANOMALY":"299.8602","LAUNCH_DATE":"2021-05-04","PERIOD":"95.594","EPHEMERIS_TYPE":"0","ELEMENT_SET_NO":"999","GP_ID":"198889741","FILE":"3361689","BSTAR":"-0.00027365000000","APOAPSIS":"548.519","CENTER_NAME":"EARTH","ARG_OF_PERICENTER":"60.2560","TIME_SYSTEM":"UTC","ECCENTRICITY":"0.00017440","MEAN_MOTION_DOT":"-0.00004352","SEMIMAJOR_AXIS":"6925.447","OBJECT_ID":"2021-038B","COUNTRY_CODE":"US","TLE_LINE2":"2 48354  53.0569  50.1511 0001744  60.2560 299.8602 15.06368027 47838","OBJECT_TYPE":"PAYLOAD","OBJECT_NAME":"STARLINK-2674","TLE_LINE1":"1 48354U 21038B   22075.40701455 -.00004352  00000-0 -27365-3 0  9992","CLASSIFICATION_TYPE":"U","REF_FRAME":"TEME","MEAN_MOTION":"15.06368027","PERIAPSIS":"546.104","EPOCH":"2022-03-16T09:46:06.057120","MEAN_ELEMENT_THEORY":"SGP4","MEAN_MOTION_DDOT":"0.0000000000000"},{"MEAN_ELEMENT_THEORY":"SGP4","MEAN_MOTION_DDOT":"0.0000000000000","EPOCH":"2022-03-16T09:40:47.451072","PERIAPSIS":"546.130","MEAN_MOTION":"15.06365655","REF_FRAME":"TEME","CLASSIFICATION_TYPE":"U","TLE_LINE1":"1 48355U 21038C   22075.40332698  .00005617  00000-0  39602-3 0  9992","OBJECT_NAME":"STARLINK-2635","OBJECT_TYPE":"PAYLOAD","TLE_LINE2":"2 48355  53.0539  50.1663 0001717  58.5790 301.5366 15.06365655 48427","COUNTRY_CODE":"US","OBJECT_ID":"2021-038C","SEMIMAJOR_AXIS":"6925.454","MEAN_MOTION_DOT":"0.00005617","ARG_OF_PERICENTER":"58.5790","ECCENTRICITY":"0.00017170","TIME_SYSTEM":"UTC","CENTER_NAME":"EARTH","APOAPSIS":"548.508","BSTAR":"0.00039602000000","FILE":"3361481","GP_ID":"198862622","EPHEMERIS_TYPE":"0","ELEMENT_SET_NO":"999","LAUNCH_DATE":"2021-05-04","PERIOD":"95.594","MEAN_ANOMALY":"301.5366","DECAY_DATE":null,"RA_OF_ASC_NODE":"50.1663","SITE":"AFETR","NORAD_CAT_ID":"48355","INCLINATION":"53.0539","RCS_SIZE":"LARGE","REV_AT_EPOCH":"4842"},{"SITE":"AFETR","RA_OF_ASC_NODE":"50.4881","NORAD_CAT_ID":"48356","INCLINATION":"53.0547","MEAN_ANOMALY":"308.1669","PERIOD":"95.592","LAUNCH_DATE":"2021-05-04","DECAY_DATE":null,"REV_AT_EPOCH":"4782","RCS_SIZE":"LARGE","CENTER_NAME":"EARTH","ELEMENT_SET_NO":"999","EPHEMERIS_TYPE":"0","APOAPSIS":"548.479","GP_ID":"198888241","FILE":"3361689","BSTAR":"-0.00001173000000","OBJECT_ID":"2021-038D","ARG_OF_PERICENTER":"51.9484","ECCENTRICITY":"0.00018180","TIME_SYSTEM":"UTC","MEAN_MOTION_DOT":"-0.00000456","SEMIMAJOR_AXIS":"6925.355","MEAN_MOTION":"15.06397881","CLASSIFICATION_TYPE":"U","TLE_LINE1":"1 48356U 21038D   22075.33327044 -.00000456  00000-0 -11730-4 0  9995","REF_FRAME":"TEME","MEAN_ELEMENT_THEORY":"SGP4","MEAN_MOTION_DDOT":"0.0000000000000","PERIAPSIS":"545.961","EPOCH":"2022-03-16T07:59:54.566016","OBJECT_NAME":"STARLINK-2637","OBJECT_TYPE":"PAYLOAD","COUNTRY_CODE":"US","TLE_LINE2":"2 48356  53.0547  50.4881 0001818  51.9484 308.1669 15.06397881 47829"}];
